[{"OBJECT_NAME":"STARLINK-5570","OBJECT_ID":"2023-014AU","EPOCH":"2026-03-09T12:07:30.730656","MEAN_MOTION":14.98318176,"ECCENTRICITY":0.00031327,"INCLINATION":69.9992,"RA_OF_ASC_NODE":104.8203,"ARG_OF_PERICENTER":269.6971,"MEAN_ANOMALY":90.3829,"EPHEMERIS_TYPE":0,"CLASSIFICATION_TYPE":"U","NORAD_CAT_ID":55433,"ELEMENT_SET_NO":999,"REV_AT_EPOCH":17104,"BSTAR":0.0001441198,"MEAN_MOTION_DOT":1.626e-5,"MEAN_MOTION_DDOT":0},{"OBJECT_NAME":"CZ-6A DEB","OBJECT_ID":"2024-140PK","EPOCH":"2026-03-09T14:50:49.125696","MEAN_MOTION":14.82233524,"ECCENTRICITY":0.0082184,"INCLINATION":89.0613,"RA_OF_ASC_NODE":285.2407,"ARG_OF_PERICENTER":189.4806,"MEAN_ANOMALY":170.4873,"EPHEMERIS_TYPE":0,"CLASSIFICATION_TYPE":"U","NORAD_CAT_ID":61117,"ELEMENT_SET_NO":999,"REV_AT_EPOCH":8234,"BSTAR":0.0019702,"MEAN_MOTION_DOT":0.0001671,"MEAN_MOTION_DDOT":0}]
